{
  "type": "FeatureCollection",
  "features": [
    {
      "type": "Feature",
      "properties": {
        "norad_id": 66446,
        "name": "STARLINK-34986",
        "group": "last-30-days",
        "lat": 16.528916686527683,
        "lon": 91.33575850997745,
        "alt_km": 411.2833755295651,
        "timestamp": "2025-12-08T08:58:59.556007+00:00",
        "meta_object_name": "STARLINK-34986",
        "meta_object_id": "2025-259AA",
        "meta_epoch": "2025-12-07T15:52:25.979520",
        "meta_mean_motion": 15.50680359,
        "meta_eccentricity": 5.485e-05,
        "meta_inclination": 42.9986,
        "meta_ra_of_asc_node": 76.9367,
        "meta_arg_of_pericenter": 5.3125,
        "meta_mean_anomaly": 354.7741,
        "meta_ephemeris_type": 0,
        "meta_classification_type": "U",
        "meta_norad_cat_id": 66446,
        "meta_element_set_no": 999,
        "meta_rev_at_epoch": 538,
        "meta_bstar": 0.0020195471,
        "meta_mean_motion_dot": 0.00120409,
        "meta_mean_motion_ddot": 0,
        "tle_line1": "1 66446U 25259AA  25341.66141180  .00120409  00000+0  20195-2 0  9995",
        "tle_line2": "2 66446  42.9986  76.9367 0000548   5.3125 354.7741 15.50680359  5386"
      },
      "geometry": {
        "type": "Point",
        "coordinates": [
          91.33575850997745,
          16.528916686527683
        ]
      }
    },
    {
      "type": "Feature",
      "properties": {
        "norad_id": 66447,
        "name": "STARLINK-34851",
        "group": "last-30-days",
        "lat": 19.919179162302555,
        "lon": 95.63433608466072,
        "alt_km": 411.16623991211145,
        "timestamp": "2025-12-08T08:58:59.556017+00:00",
        "meta_object_name": "STARLINK-34851",
        "meta_object_id": "2025-259AB",
        "meta_epoch": "2025-12-06T16:40:03.313920",
        "meta_mean_motion": 15.50690671,
        "meta_eccentricity": 0.00040491,
        "meta_inclination": 43.0023,
        "meta_ra_of_asc_node": 82.5838,
        "meta_arg_of_pericenter": 272.8522,
        "meta_mean_anomaly": 87.1875,
        "meta_ephemeris_type": 0,
        "meta_classification_type": "U",
        "meta_norad_cat_id": 66447,
        "meta_element_set_no": 999,
        "meta_rev_at_epoch": 512,
        "meta_bstar": 0.0019447268,
        "meta_mean_motion_dot": 0.00115934,
        "meta_mean_motion_ddot": 0,
        "tle_line1": "1 66447U 25259AB  25340.69448280  .00115934  00000+0  19447-2 0  9994",
        "tle_line2": "2 66447  43.0023  82.5838 0004049 272.8522  87.1875 15.50690671  5124"
      },
      "geometry": {
        "type": "Point",
        "coordinates": [
          95.63433608466072,
          19.919179162302555
        ]
      }
    },
    {
      "type": "Feature",
      "properties": {
        "norad_id": 66448,
        "name": "STARLINK-35355",
        "group": "last-30-days",
        "lat": 20.041335499694753,
        "lon": 95.79702879565062,
        "alt_km": 411.81079464828326,
        "timestamp": "2025-12-08T08:58:59.556031+00:00",
        "meta_object_name": "STARLINK-35355",
        "meta_object_id": "2025-259AC",
        "meta_epoch": "2025-12-07T15:50:56.429376",
        "meta_mean_motion": 15.50580103,
        "meta_eccentricity": 0.00010297,
        "meta_inclination": 43.0006,
        "meta_ra_of_asc_node": 76.9291,
        "meta_arg_of_pericenter": 260.1542,
        "meta_mean_anomaly": 99.9202,
        "meta_ephemeris_type": 0,
        "meta_classification_type": "U",
        "meta_norad_cat_id": 66448,
        "meta_element_set_no": 999,
        "meta_rev_at_epoch": 538,
        "meta_bstar": 0.0018133801,
        "meta_mean_motion_dot": 0.00107517,
        "meta_mean_motion_ddot": 0,
        "tle_line1": "1 66448U 25259AC  25341.66037534  .00107517  00000+0  18134-2 0  9999",
        "tle_line2": "2 66448  43.0006  76.9291 0001029 260.1542  99.9202 15.50580103  5384"
      },
      "geometry": {
        "type": "Point",
        "coordinates": [
          95.79702879565062,
          20.041335499694753
        ]
      }
    },
    {
      "type": "Feature",
      "properties": {
        "norad_id": 66449,
        "name": "STARLINK-34720",
        "group": "last-30-days",
        "lat": 22.15509644048372,
        "lon": 98.65011713417502,
        "alt_km": 410.34576706527423,
        "timestamp": "2025-12-08T08:58:59.556041+00:00",
        "meta_object_name": "STARLINK-34720",
        "meta_object_id": "2025-259AD",
        "meta_epoch": "2025-12-06T16:39:04.732992",
        "meta_mean_motion": 15.50613009,
        "meta_eccentricity": 0.00015775,
        "meta_inclination": 43.0002,
        "meta_ra_of_asc_node": 82.5763,
        "meta_arg_of_pericenter": 274.1067,
        "meta_mean_anomaly": 85.9613,
        "meta_ephemeris_type": 0,
        "meta_classification_type": "U",
        "meta_norad_cat_id": 66449,
        "meta_element_set_no": 999,
        "meta_rev_at_epoch": 512,
        "meta_bstar": 0.0024109474,
        "meta_mean_motion_dot": 0.00143901,
        "meta_mean_motion_ddot": 0,
        "tle_line1": "1 66449U 25259AD  25340.69380478  .00143901  00000+0  24109-2 0  9996",
        "tle_line2": "2 66449  43.0002  82.5763 0001577 274.1067  85.9613 15.50613009  5128"
      },
      "geometry": {
        "type": "Point",
        "coordinates": [
          98.65011713417502,
          22.15509644048372
        ]
      }
    },
    {
      "type": "Feature",
      "properties": {
        "norad_id": 66450,
        "name": "STARLINK-35334",
        "group": "last-30-days",
        "lat": 23.412926793322747,
        "lon": 100.4222265680743,
        "alt_km": 410.35042550012986,
        "timestamp": "2025-12-08T08:58:59.556051+00:00",
        "meta_object_name": "STARLINK-35334",
        "meta_object_id": "2025-259AE",
        "meta_epoch": "2025-12-06T15:05:49.303968",
        "meta_mean_motion": 15.50640512,
        "meta_eccentricity": 0.00016631,
        "meta_inclination": 43.001,
        "meta_ra_of_asc_node": 82.9491,
        "meta_arg_of_pericenter": 265.9718,
        "meta_mean_anomaly": 94.0952,
        "meta_ephemeris_type": 0,
        "meta_classification_type": "U",
        "meta_norad_cat_id": 66450,
        "meta_element_set_no": 999,
        "meta_rev_at_epoch": 522,
        "meta_bstar": 0.0021499199,
        "meta_mean_motion_dot": 0.0012815,
        "meta_mean_motion_ddot": 0,
        "tle_line1": "1 66450U 25259AE  25340.62904287  .00128150  00000+0  21499-2 0  9999",
        "tle_line2": "2 66450  43.0010  82.9491 0001663 265.9718  94.0952 15.50640512  5225"
      },
      "geometry": {
        "type": "Point",
        "coordinates": [
          100.4222265680743,
          23.412926793322747
        ]
      }
    },
    {
      "type": "Feature",
      "properties": {
        "norad_id": 66454,
        "name": "VIASAT-3 F2",
        "group": "last-30-days",
        "lat": -0.6275816718876435,
        "lon": -73.69340327338614,
        "alt_km": 23529.71104408785,
        "timestamp": "2025-12-08T08:58:59.556079+00:00",
        "meta_object_name": "VIASAT-3 F2",
        "meta_object_id": "2025-261A",
        "meta_epoch": "2025-12-04T21:51:56.064384",
        "meta_mean_motion": 2.28030055,
        "meta_eccentricity": 0.23396731,
        "meta_inclination": 5.5696,
        "meta_ra_of_asc_node": 293.0418,
        "meta_arg_of_pericenter": 184.3884,
        "meta_mean_anomaly": 199.1368,
        "meta_ephemeris_type": 0,
        "meta_classification_type": "U",
        "meta_norad_cat_id": 66454,
        "meta_element_set_no": 999,
        "meta_rev_at_epoch": 47,
        "meta_bstar": 0,
        "meta_mean_motion_dot": -6.1e-07,
        "meta_mean_motion_ddot": 0,
        "tle_line1": "1 66454U 25261A   25338.91106556 -.00000061  00000+0  00000+0 0  9991",
        "tle_line2": "2 66454   5.5696 293.0418 2339673 184.3884 199.1368  2.28030055   477"
      },
      "geometry": {
        "type": "Point",
        "coordinates": [
          -73.69340327338614,
          -0.6275816718876435
        ]
      }
    },
    {
      "type": "Feature",
      "properties": {
        "norad_id": 66455,
        "name": "ATLAS 5 CENTAUR R/B",
        "group": "last-30-days",
        "lat": -0.9583289404327177,
        "lon": -76.81569056222017,
        "alt_km": 23380.495705995716,
        "timestamp": "2025-12-08T08:58:59.556094+00:00",
        "meta_object_name": "ATLAS 5 CENTAUR R/B",
        "meta_object_id": "2025-261B",
        "meta_epoch": "2025-12-07T21:33:27.988704",
        "meta_mean_motion": 2.28259422,
        "meta_eccentricity": 0.23295294,
        "meta_inclination": 6.1519,
        "meta_ra_of_asc_node": 292.1006,
        "meta_arg_of_pericenter": 185.5108,
        "meta_mean_anomaly": 126.3114,
        "meta_ephemeris_type": 0,
        "meta_classification_type": "U",
        "meta_norad_cat_id": 66455,
        "meta_element_set_no": 999,
        "meta_rev_at_epoch": 53,
        "meta_bstar": 0,
        "meta_mean_motion_dot": -7.7e-07,
        "meta_mean_motion_ddot": 0,
        "tle_line1": "1 66455U 25261B   25341.89824061 -.00000077  00000+0  00000+0 0  9998",
        "tle_line2": "2 66455   6.1519 292.1006 2329529 185.5108 126.3114  2.28259422   532"
      },
      "geometry": {
        "type": "Point",
        "coordinates": [
          -76.81569056222017,
          -0.9583289404327177
        ]
      }
    }
  ]
}